IRIDIUM 112             
1 41925U 17003J   25178.15132171  .00000172  00000+0  54347-4 0  9992
2 41925  86.3965 236.6045 0002331  96.0383 264.1078 14.34218780442415
IRIDIUM 111             
1 41926U 17003K   25177.65025789  .00000078  00000+0  20696-4 0  9998
2 41926  86.3967 236.8764 0002385  89.7019 270.4450 14.34218088442293
IRIDIUM 113             
1 42803U 17039A   25177.76975989  .00000003  00000+0 -60839-5 0  9993
2 42803  86.3975 110.7554 0002330  87.8028 272.3434 14.34217543420242
IRIDIUM 123             
1 42804U 17039B   25177.88100694 -.00000004  00000+0 -83393-5 0  9992
2 42804  86.3992 142.1700 0002320  77.8178 282.3277 14.34217464419020
IRIDIUM 120             
1 42805U 17039C   25177.76341644  .00000022  00000+0  75756-6 0  9995
2 42805  86.3965 110.5867 0002055  76.1835 283.9589 14.34217681420230
IRIDIUM 115             
1 42806U 17039D   25177.79802121  .00000264  00000+0  72466-4 0  9992
2 42806  86.4502 110.6523 0002682  69.6686 290.4803 14.43282223423000
IRIDIUM 118             
1 42807U 17039E   25177.84295144  .00000012  00000+0 -27213-5 0  9993
2 42807  86.3991 142.1854 0002176  88.5353 271.6092 14.34217486419014
IRIDIUM 117             
1 42808U 17039F   25177.37360032 -.00000027  00000+0 -16557-4 0  9996
2 42808  86.3991 142.3425 0002430  81.9765 278.1707 14.34217119418970
